ONEWEB-0504             
1 54122U 22138K   24119.88327507  .00000105  00000+0  22997-3 0  9994
2 54122  87.9108 100.0679 0001564  85.0039 275.1272 13.19725905 74912
ONEWEB-0505             
1 54123U 22138L   24119.50102998  .00000094  00000+0  20214-3 0  9996
2 54123  87.9106 100.1397 0001332 103.1999 256.9282 13.19726965 73979
ONEWEB-0506             
1 54124U 22138M   24119.47575886  .00000057  00000+0  11018-3 0  9994
2 54124  87.9104 100.1418 0001768  92.8326 267.3009 13.19727137 73967
ONEWEB-0507             
1 54125U 22138N   24119.49629355  .00000085  00000+0  18045-3 0  9996
2 54125  87.9114 100.1547 0001825  97.0038 263.1302 13.19726616 74011
ONEWEB-0508             
1 54126U 22138P   24119.87220475  .00000065  00000+0  12911-3 0  9993
2 54126  87.9111 100.0746 0001750 100.7248 259.4082 13.19728090 74911
ONEWEB-0509             
1 54127U 22138Q   24119.46786340  .00000040  00000+0  67556-4 0  9996
2 54127  87.9104 100.1456 0001826  90.8440 269.2902 13.19725933 73967
ONEWEB-0510             
1 54128U 22138R   24119.89715065  .00000116  00000+0  25357-3 0  9996
2 54128  87.9196  69.4872 0002426  88.7838 271.3573 13.20772540 77311
ONEWEB-0511             
1 54129U 22138S   24119.46470137  .00000109  00000+0  24029-3 0  9995
2 54129  87.9105 100.1487 0001692  77.1332 282.9990 13.19726398 73991
